[{"OBJECT_NAME":"KUIPER-00047","OBJECT_ID":"2025-134H","EPOCH":"2026-03-02T19:25:59.477088","MEAN_MOTION":14.77230391,"ECCENTRICITY":0.0002639,"INCLINATION":51.8978,"RA_OF_ASC_NODE":246.1408,"ARG_OF_PERICENTER":118.6874,"MEAN_ANOMALY":241.4353,"EPHEMERIS_TYPE":0,"CLASSIFICATION_TYPE":"U","NORAD_CAT_ID":64507,"ELEMENT_SET_NO":999,"REV_AT_EPOCH":3929,"BSTAR":0.00056084,"MEAN_MOTION_DOT":3.797e-5,"MEAN_MOTION_DDOT":0},{"OBJECT_NAME":"KUIPER-00048","OBJECT_ID":"2025-134J","EPOCH":"2026-03-02T16:38:40.075296","MEAN_MOTION":14.79940457,"ECCENTRICITY":0.0001152,"INCLINATION":51.8971,"RA_OF_ASC_NODE":246.516,"ARG_OF_PERICENTER":104.3853,"MEAN_ANOMALY":255.7237,"EPHEMERIS_TYPE":0,"CLASSIFICATION_TYPE":"U","NORAD_CAT_ID":64508,"ELEMENT_SET_NO":999,"REV_AT_EPOCH":3928,"BSTAR":-5.1288e-5,"MEAN_MOTION_DOT":-6.12e-6,"MEAN_MOTION_DDOT":0},{"OBJECT_NAME":"KUIPER-00049","OBJECT_ID":"2025-134K","EPOCH":"2026-03-02T20:00:01.999008","MEAN_MOTION":14.83162623,"ECCENTRICITY":0.0001462,"INCLINATION":51.8984,"RA_OF_ASC_NODE":259.2856,"ARG_OF_PERICENTER":105.3259,"MEAN_ANOMALY":47.884,"EPHEMERIS_TYPE":0,"CLASSIFICATION_TYPE":"U","NORAD_CAT_ID":64509,"ELEMENT_SET_NO":999,"REV_AT_EPOCH":346,"BSTAR":-0.0010148,"MEAN_MOTION_DOT":-8.576e-5,"MEAN_MOTION_DDOT":0},{"OBJECT_NAME":"KUIPER-00050","OBJECT_ID":"2025-134L","EPOCH":"2026-03-02T18:00:48.975840","MEAN_MOTION":14.97244355,"ECCENTRICITY":0.0003951,"INCLINATION":51.8905,"RA_OF_ASC_NODE":243.4891,"ARG_OF_PERICENTER":297.7841,"MEAN_ANOMALY":62.2728,"EPHEMERIS_TYPE":0,"CLASSIFICATION_TYPE":"U","NORAD_CAT_ID":64510,"ELEMENT_SET_NO":999,"REV_AT_EPOCH":3933,"BSTAR":-0.00036832,"MEAN_MOTION_DOT":-4.569e-5,"MEAN_MOTION_DDOT":0},{"OBJECT_NAME":"KUIPER-00051","OBJECT_ID":"2025-134M","EPOCH":"2026-03-02T18:01:42.629376","MEAN_MOTION":14.83707542,"ECCENTRICITY":8.13e-5,"INCLINATION":51.8995,"RA_OF_ASC_NODE":256.6435,"ARG_OF_PERICENTER":103.4883,"MEAN_ANOMALY":256.6171,"EPHEMERIS_TYPE":0,"CLASSIFICATION_TYPE":"U","NORAD_CAT_ID":64511,"ELEMENT_SET_NO":999,"REV_AT_EPOCH":3914,"BSTAR":0.00059013,"MEAN_MOTION_DOT":4.7e-5,"MEAN_MOTION_DDOT":0},{"OBJECT_NAME":"KUIPER-00053","OBJECT_ID":"2025-134P","EPOCH":"2026-03-02T18:04:14.383200","MEAN_MOTION":14.79921534,"ECCENTRICITY":9.58e-5,"INCLINATION":51.8995,"RA_OF_ASC_NODE":253.7692,"ARG_OF_PERICENTER":127.0992,"MEAN_ANOMALY":233.0058,"EPHEMERIS_TYPE":0,"CLASSIFICATION_TYPE":"U","NORAD_CAT_ID":64513,"ELEMENT_SET_NO":999,"REV_AT_EPOCH":3918,"BSTAR":-0.00041615,"MEAN_MOTION_DOT":-3.391e-5,"MEAN_MOTION_DDOT":0},{"OBJECT_NAME":"KUIPER-00054","OBJECT_ID":"2025-134Q","EPOCH":"2026-03-02T18:12:24.768864","MEAN_MOTION":14.79918351,"ECCENTRICITY":3.49e-5,"INCLINATION":51.8979,"RA_OF_ASC_NODE":248.7189,"ARG_OF_PERICENTER":136.2852,"MEAN_ANOMALY":223.8138,"EPHEMERIS_TYPE":0,"CLASSIFICATION_TYPE":"U","NORAD_CAT_ID":64514,"ELEMENT_SET_NO":999,"REV_AT_EPOCH":3925,"BSTAR":0.00058334,"MEAN_MOTION_DOT":4.227e-5,"MEAN_MOTION_DDOT":0},{"OBJECT_NAME":"KUIPER-00055","OBJECT_ID":"2025-134R","EPOCH":"2026-03-02T16:07:16.900896","MEAN_MOTION":15.2024401,"ECCENTRICITY":3.09e-5,"INCLINATION":51.8874,"RA_OF_ASC_NODE":212.8264,"ARG_OF_PERICENTER":309.2936,"MEAN_ANOMALY":50.8016,"EPHEMERIS_TYPE":0,"CLASSIFICATION_TYPE":"U","NORAD_CAT_ID":64515,"ELEMENT_SET_NO":999,"REV_AT_EPOCH":3975,"BSTAR":0.00093007,"MEAN_MOTION_DOT":0.00020177,"MEAN_MOTION_DDOT":0},{"OBJECT_NAME":"KUIPER-00056","OBJECT_ID":"2025-134S","EPOCH":"2026-03-02T17:50:04.130304","MEAN_MOTION":14.83473594,"ECCENTRICITY":9.12e-5,"INCLINATION":51.9013,"RA_OF_ASC_NODE":254.0766,"ARG_OF_PERICENTER":63.5918,"MEAN_ANOMALY":296.5139,"EPHEMERIS_TYPE":0,"CLASSIFICATION_TYPE":"U","NORAD_CAT_ID":64516,"ELEMENT_SET_NO":999,"REV_AT_EPOCH":3918,"BSTAR":0.00061938,"MEAN_MOTION_DOT":4.916e-5,"MEAN_MOTION_DDOT":0},{"OBJECT_NAME":"KUIPER-00057","OBJECT_ID":"2025-134T","EPOCH":"2026-03-02T19:20:04.256448","MEAN_MOTION":14.83708238,"ECCENTRICITY":0.0004198,"INCLINATION":51.8972,"RA_OF_ASC_NODE":261.3002,"ARG_OF_PERICENTER":247.7591,"MEAN_ANOMALY":112.2928,"EPHEMERIS_TYPE":0,"CLASSIFICATION_TYPE":"U","NORAD_CAT_ID":64517,"ELEMENT_SET_NO":999,"REV_AT_EPOCH":3908,"BSTAR":-0.00048492,"MEAN_MOTION_DOT":-4.275e-5,"MEAN_MOTION_DDOT":0},{"OBJECT_NAME":"KUIPER-00058","OBJECT_ID":"2025-134U","EPOCH":"2026-03-02T18:00:37.708416","MEAN_MOTION":14.79930035,"ECCENTRICITY":7.62e-5,"INCLINATION":51.8993,"RA_OF_ASC_NODE":256.2201,"ARG_OF_PERICENTER":121.722,"MEAN_ANOMALY":238.3817,"EPHEMERIS_TYPE":0,"CLASSIFICATION_TYPE":"U","NORAD_CAT_ID":64518,"ELEMENT_SET_NO":999,"REV_AT_EPOCH":3915,"BSTAR":0.00060821,"MEAN_MOTION_DOT":4.418e-5,"MEAN_MOTION_DDOT":0},{"OBJECT_NAME":"KUIPER-00059","OBJECT_ID":"2025-134V","EPOCH":"2026-03-02T18:08:08.505600","MEAN_MOTION":14.79896763,"ECCENTRICITY":0.0001467,"INCLINATION":51.8984,"RA_OF_ASC_NODE":251.2478,"ARG_OF_PERICENTER":138.4258,"MEAN_ANOMALY":221.6816,"EPHEMERIS_TYPE":0,"CLASSIFICATION_TYPE":"U","NORAD_CAT_ID":64519,"ELEMENT_SET_NO":999,"REV_AT_EPOCH":3922,"BSTAR":0.00056505,"MEAN_MOTION_DOT":4.085e-5,"MEAN_MOTION_DDOT":0},{"OBJECT_NAME":"KUIPER-00060","OBJECT_ID":"2025-134W","EPOCH":"2026-03-02T17:50:26.869056","MEAN_MOTION":14.83536388,"ECCENTRICITY":0.0001677,"INCLINATION":51.901,"RA_OF_ASC_NODE":251.5533,"ARG_OF_PERICENTER":66.0925,"MEAN_ANOMALY":294.0215,"EPHEMERIS_TYPE":0,"CLASSIFICATION_TYPE":"U","NORAD_CAT_ID":64520,"ELEMENT_SET_NO":999,"REV_AT_EPOCH":3920,"BSTAR":0.00059788,"MEAN_MOTION_DOT":4.744e-5,"MEAN_MOTION_DDOT":0},{"OBJECT_NAME":"KUIPER-00061","OBJECT_ID":"2025-134X","EPOCH":"2026-03-02T17:56:22.858656","MEAN_MOTION":14.79949562,"ECCENTRICITY":0.0001176,"INCLINATION":51.8987,"RA_OF_ASC_NODE":258.7863,"ARG_OF_PERICENTER":88.3634,"MEAN_ANOMALY":271.7463,"EPHEMERIS_TYPE":0,"CLASSIFICATION_TYPE":"U","NORAD_CAT_ID":64521,"ELEMENT_SET_NO":999,"REV_AT_EPOCH":3910,"BSTAR":-0.0017579,"MEAN_MOTION_DOT":-0.000136,"MEAN_MOTION_DDOT":0},{"OBJECT_NAME":"KUIPER-00062","OBJECT_ID":"2025-134Y","EPOCH":"2026-03-02T17:52:31.944288","MEAN_MOTION":14.79940802,"ECCENTRICITY":7.93e-5,"INCLINATION":51.8941,"RA_OF_ASC_NODE":261.3355,"ARG_OF_PERICENTER":153.6473,"MEAN_ANOMALY":206.453,"EPHEMERIS_TYPE":0,"CLASSIFICATION_TYPE":"U","NORAD_CAT_ID":64522,"ELEMENT_SET_NO":999,"REV_AT_EPOCH":3908,"BSTAR":-0.00054821,"MEAN_MOTION_DOT":-4.398e-5,"MEAN_MOTION_DDOT":0},{"OBJECT_NAME":"KUIPER-00063","OBJECT_ID":"2025-134Z","EPOCH":"2026-03-02T19:19:25.271040","MEAN_MOTION":14.7935569,"ECCENTRICITY":0.0001016,"INCLINATION":51.9014,"RA_OF_ASC_NODE":268.5499,"ARG_OF_PERICENTER":98.0086,"MEAN_ANOMALY":262.0992,"EPHEMERIS_TYPE":0,"CLASSIFICATION_TYPE":"U","NORAD_CAT_ID":64523,"ELEMENT_SET_NO":999,"REV_AT_EPOCH":3898,"BSTAR":0.00055636,"MEAN_MOTION_DOT":3.966e-5,"MEAN_MOTION_DDOT":0},{"OBJECT_NAME":"KUIPER-00064","OBJECT_ID":"2025-134AA","EPOCH":"2026-03-02T19:22:04.234944","MEAN_MOTION":14.79942971,"ECCENTRICITY":7.26e-5,"INCLINATION":51.9002,"RA_OF_ASC_NODE":265.9557,"ARG_OF_PERICENTER":73.5459,"MEAN_ANOMALY":286.5583,"EPHEMERIS_TYPE":0,"CLASSIFICATION_TYPE":"U","NORAD_CAT_ID":64524,"ELEMENT_SET_NO":999,"REV_AT_EPOCH":3902,"BSTAR":-0.00091838,"MEAN_MOTION_DOT":-7.216e-5,"MEAN_MOTION_DDOT":0}]
