KUIPER-00047            
1 64507U 25134H   26061.80971617  .00003797  00000+0  56084-3 0  9992
2 64507  51.8978 246.1408 0002639 118.6874 241.4353 14.77230391 39294
KUIPER-00048            
1 64508U 25134J   26061.69351939 -.00000612  00000+0 -51288-4 0  9996
2 64508  51.8971 246.5160 0001152 104.3853 255.7237 14.79940457 39286
KUIPER-00049            
1 64509U 25134K   26061.83335647 -.00008576  00000+0 -10148-2 0  9996
2 64509  51.8984 259.2856 0001462 105.3259  47.8840 14.83162623  3466
KUIPER-00050            
1 64510U 25134L   26061.75056685 -.00004569  00000+0 -36832-3 0  9998
2 64510  51.8905 243.4891 0003951 297.7841  62.2728 14.97244355 39332
KUIPER-00051            
1 64511U 25134M   26061.75118784  .00004700  00000+0  59013-3 0  9999
2 64511  51.8995 256.6435 0000813 103.4883 256.6171 14.83707542 39142
KUIPER-00053            
1 64513U 25134P   26061.75294425 -.00003391  00000+0 -41615-3 0  9994
2 64513  51.8995 253.7692 0000958 127.0992 233.0058 14.79921534 39181
KUIPER-00054            
1 64514U 25134Q   26061.75862001  .00004227  00000+0  58334-3 0  9999
2 64514  51.8979 248.7189 0000349 136.2852 223.8138 14.79918351 39257
KUIPER-00055            
1 64515U 25134R   26061.67172339  .00020177  00000+0  93007-3 0  9997
2 64515  51.8874 212.8264 0000309 309.2936  50.8016 15.20244010 39758
KUIPER-00056            
1 64516U 25134S   26061.74310336  .00004916  00000+0  61938-3 0  9998
2 64516  51.9013 254.0766 0000912  63.5918 296.5139 14.83473594 39181
KUIPER-00057            
1 64517U 25134T   26061.80560482 -.00004275  00000+0 -48492-3 0  9995
2 64517  51.8972 261.3002 0004198 247.7591 112.2928 14.83708238 39087
KUIPER-00058            
1 64518U 25134U   26061.75043644  .00004418  00000+0  60821-3 0  9993
2 64518  51.8993 256.2201 0000762 121.7220 238.3817 14.79930035 39150
KUIPER-00059            
1 64519U 25134V   26061.75565400  .00004085  00000+0  56505-3 0  9997
2 64519  51.8984 251.2478 0001467 138.4258 221.6816 14.79896763 39222
KUIPER-00060            
1 64520U 25134W   26061.74336654  .00004744  00000+0  59788-3 0  9993
2 64520  51.9010 251.5533 0001677  66.0925 294.0215 14.83536388 39204
KUIPER-00061            
1 64521U 25134X   26061.74748679 -.00013600  00000+0 -17579-2 0  9992
2 64521  51.8987 258.7863 0001176  88.3634 271.7463 14.79949562 39103
KUIPER-00062            
1 64522U 25134Y   26061.74481417 -.00004398  00000+0 -54821-3 0  9993
2 64522  51.8941 261.3355 0000793 153.6473 206.4530 14.79940802 39086
KUIPER-00063            
1 64523U 25134Z   26061.80515360  .00003966  00000+0  55636-3 0  9999
2 64523  51.9014 268.5499 0001016  98.0086 262.0992 14.79355690 38981
KUIPER-00064            
1 64524U 25134AA  26061.80699346 -.00007216  00000+0 -91838-3 0  9995
2 64524  51.9002 265.9557 0000726  73.5459 286.5583 14.79942971 39021
